STARLINK-2501
1 18330C 21036BG  21326.16336240  .00001604  00000-0  10746-3 0  3265
2 18330  53.0556 303.0092 0002087  54.3442 246.8825 15.06394761    18
